{"type": "FeatureCollection", "features": [ {"type": "Feature", "properties": {"norad_id": 40664, "name": "SKY MEXICO-1", "group": "intelsat", "lat": -0.034717271210305635, "lon": -128.16328338787352, "alt_km": 35780.43052150402, "timestamp": "2025-12-21T14:40:47.578610+00:00", "meta": {"OBJECT_NAME": "SKY MEXICO-1", "OBJECT_ID": "2015-026B", "EPOCH": "2025-12-21T02:33:02.837376", "MEAN_MOTION": 1.00271688, "ECCENTRICITY": 0.00023438, "INCLINATION": 0.0148, "RA_OF_ASC_NODE": 348.6805, "ARG_OF_PERICENTER": 298.0643, "MEAN_ANOMALY": 122.688, "EPHEMERIS_TYPE": 0, "CLASSIFICATION_TYPE": "U", "NORAD_CAT_ID": 40664, "ELEMENT_SET_NO": 999, "REV_AT_EPOCH": 3866, "BSTAR": 0, "MEAN_MOTION_DOT": -2.11e-06, "MEAN_MOTION_DDOT": 0}, "tle": {"line1": "1 40664U 15026B   25355.10628284 -.00000211  00000+0  00000+0 0  9998", "line2": "2 40664   0.0148 348.6805 0002343 298.0643 122.6880  1.00271688 38666"}}, "geometry": {"type": "Point", "coordinates": [-128.16328338787352, -0.034717271210305635]}}, {"type": "Feature", "properties": {"norad_id": 40874, "name": "INTELSAT 34 (IS-34)", "group": "intelsat", "lat": -0.03180544024030537, "lon": -104.87493892932929, "alt_km": 35787.114666460795, "timestamp": "2025-12-21T14:40:47.578624+00:00", "meta": {"OBJECT_NAME": "INTELSAT 34 (IS-34)", "OBJECT_ID": "2015-039A", "EPOCH": "2025-12-21T04:31:38.456256", "MEAN_MOTION": 1.00270737, "ECCENTRICITY": 5.671e-05, "INCLINATION": 0.0114, "RA_OF_ASC_NODE": 322.9713, "ARG_OF_PERICENTER": 185.716, "MEAN_ANOMALY": 313.7366, "EPHEMERIS_TYPE": 0, "CLASSIFICATION_TYPE": "U", "NORAD_CAT_ID": 40874, "ELEMENT_SET_NO": 999, "REV_AT_EPOCH": 3784, "BSTAR": 0, "MEAN_MOTION_DOT": -2.62e-06, "MEAN_MOTION_DDOT": 0}, "tle": {"line1": "1 40874U 15039A   25355.18863954 -.00000262  00000+0  00000+0 0  9994", "line2": "2 40874   0.0114 322.9713 0000567 185.7160 313.7366  1.00270737 37842"}}, "geometry": {"type": "Point", "coordinates": [-104.87493892932929, -0.03180544024030537]}}, {"type": "Feature", "properties": {"norad_id": 41581, "name": "INTELSAT 31 (IS-31)", "group": "intelsat", "lat": -0.024186004694580637, "lon": -144.42484449309669, "alt_km": 35777.94406306871, "timestamp": "2025-12-21T14:40:47.578637+00:00", "meta": {"OBJECT_NAME": "INTELSAT 31 (IS-31)", "OBJECT_ID": "2016-035A", "EPOCH": "2025-12-20T14:29:23.871264", "MEAN_MOTION": 1.00271704, "ECCENTRICITY": 0.00019976, "INCLINATION": 0.0288, "RA_OF_ASC_NODE": 267.9464, "ARG_OF_PERICENTER": 295.2319, "MEAN_ANOMALY": 8.5584, "EPHEMERIS_TYPE": 0, "CLASSIFICATION_TYPE": "U", "NORAD_CAT_ID": 41581, "ELEMENT_SET_NO": 999, "REV_AT_EPOCH": 3489, "BSTAR": 0, "MEAN_MOTION_DOT": -1.27e-06, "MEAN_MOTION_DDOT": 0}, "tle": {"line1": "1 41581U 16035A   25354.60374851 -.00000127  00000+0  00000+0 0  9996", "line2": "2 41581   0.0288 267.9464 0001997 295.2319   8.5584  1.00271704 34890"}}, "geometry": {"type": "Point", "coordinates": [-144.42484449309669, -0.024186004694580637]}}, {"type": "Feature", "properties": {"norad_id": 41747, "name": "INTELSAT 36 (IS-36)", "group": "intelsat", "lat": 0.012385019641208707, "lon": 19.126305714897903, "alt_km": 35782.44739313259, "timestamp": "2025-12-21T14:40:47.578649+00:00", "meta": {"OBJECT_NAME": "INTELSAT 36 (IS-36)", "OBJECT_ID": "2016-053A", "EPOCH": "2025-12-21T04:57:48.972384", "MEAN_MOTION": 1.00273317, "ECCENTRICITY": 0.00012154, "INCLINATION": 0.0105, "RA_OF_ASC_NODE": 358.7052, "ARG_OF_PERICENTER": 329.3234, "MEAN_ANOMALY": 264.9497, "EPHEMERIS_TYPE": 0, "CLASSIFICATION_TYPE": "U", "NORAD_CAT_ID": 41747, "ELEMENT_SET_NO": 999, "REV_AT_EPOCH": 3416, "BSTAR": 0, "MEAN_MOTION_DOT": -2e-08, "MEAN_MOTION_DDOT": 0}, "tle": {"line1": "1 41747U 16053A   25355.20681681 -.00000002  00000+0  00000+0 0  9991", "line2": "2 41747   0.0105 358.7052 0001215 329.3234 264.9497  1.00273317 34165"}}, "geometry": {"type": "Point", "coordinates": [19.126305714897903, 0.012385019641208707]}}, {"type": "Feature", "properties": {"norad_id": 41945, "name": "INTELSAT 32E (IS-32E)", "group": "intelsat", "lat": -0.027100521790093857, "lon": -92.5734178495234, "alt_km": 35788.972103912856, "timestamp": "2025-12-21T14:40:47.578660+00:00", "meta": {"OBJECT_NAME": "INTELSAT 32E (IS-32E)", "OBJECT_ID": "2017-007B", "EPOCH": "2025-12-21T04:23:38.749632", "MEAN_MOTION": 1.00267769, "ECCENTRICITY": 7.915e-05, "INCLINATION": 0.0277, "RA_OF_ASC_NODE": 70.1638, "ARG_OF_PERICENTER": 318.0314, "MEAN_ANOMALY": 84.5444, "EPHEMERIS_TYPE": 0, "CLASSIFICATION_TYPE": "U", "NORAD_CAT_ID": 41945, "ELEMENT_SET_NO": 999, "REV_AT_EPOCH": 3244, "BSTAR": 0, "MEAN_MOTION_DOT": -2.46e-06, "MEAN_MOTION_DDOT": 0}, "tle": {"line1": "1 41945U 17007B   25355.18308738 -.00000246  00000+0  00000+0 0  9997", "line2": "2 41945   0.0277  70.1638 0000791 318.0314  84.5444  1.00267769 32443"}}, "geometry": {"type": "Point", "coordinates": [-92.5734178495234, -0.027100521790093857]}}, {"type": "Feature", "properties": {"norad_id": 42818, "name": "INTELSAT 35E (IS-35E)", "group": "intelsat", "lat": -0.040791602150513584, "lon": -83.87080464756666, "alt_km": 35778.537972255705, "timestamp": "2025-12-21T14:40:47.578672+00:00", "meta": {"OBJECT_NAME": "INTELSAT 35E (IS-35E)", "OBJECT_ID": "2017-041A", "EPOCH": "2025-12-21T02:45:46.617696", "MEAN_MOTION": 1.00270832, "ECCENTRICITY": 0.0001858, "INCLINATION": 0.017, "RA_OF_ASC_NODE": 28.2756, "ARG_OF_PERICENTER": 244.397, "MEAN_ANOMALY": 184.2219, "EPHEMERIS_TYPE": 0, "CLASSIFICATION_TYPE": "U", "NORAD_CAT_ID": 42818, "ELEMENT_SET_NO": 999, "REV_AT_EPOCH": 3103, "BSTAR": 0, "MEAN_MOTION_DOT": -2.15e-06, "MEAN_MOTION_DDOT": 0}, "tle": {"line1": "1 42818U 17041A   25355.11512289 -.00000215  00000+0  00000+0 0  9992", "line2": "2 42818   0.0170  28.2756 0001858 244.3970 184.2219  1.00270832 31031"}}, "geometry": {"type": "Point", "coordinates": [-83.87080464756666, -0.040791602150513584]}}, {"type": "Feature", "properties": {"norad_id": 42950, "name": "INTELSAT 37E (IS-37E)", "group": "intelsat", "lat": -0.043094426313082086, "lon": -67.36840431593866, "alt_km": 35775.60316330805, "timestamp": "2025-12-21T14:40:47.578684+00:00", "meta": {"OBJECT_NAME": "INTELSAT 37E (IS-37E)", "OBJECT_ID": "2017-059A", "EPOCH": "2025-12-21T03:48:38.471904", "MEAN_MOTION": 1.00271819, "ECCENTRICITY": 0.00028325, "INCLINATION": 0.0177, "RA_OF_ASC_NODE": 17.7899, "ARG_OF_PERICENTER": 245.6869, "MEAN_ANOMALY": 225.6628, "EPHEMERIS_TYPE": 0, "CLASSIFICATION_TYPE": "U", "NORAD_CAT_ID": 42950, "ELEMENT_SET_NO": 999, "REV_AT_EPOCH": 3028, "BSTAR": 0, "MEAN_MOTION_DOT": -1.18e-06, "MEAN_MOTION_DDOT": 0}, "tle": {"line1": "1 42950U 17059A   25355.15877861 -.00000118  00000+0  00000+0 0  9994", "line2": "2 42950   0.0177  17.7899 0002832 245.6869 225.6628  1.00271819 30286"}}, "geometry": {"type": "Point", "coordinates": [-67.36840431593866, -0.043094426313082086]}}, {"type": "Feature", "properties": {"norad_id": 43632, "name": "AZERSPACE 2 (IS-38)", "group": "intelsat", "lat": 0.005627876459545809, "lon": -4.2453543075029065, "alt_km": 35785.413251909355, "timestamp": "2025-12-21T14:40:47.578695+00:00", "meta": {"OBJECT_NAME": "AZERSPACE 2 (IS-38)", "OBJECT_ID": "2018-074A", "EPOCH": "2025-12-21T04:51:12.105216", "MEAN_MOTION": 1.0027232, "ECCENTRICITY": 0.00012386, "INCLINATION": 0.018, "RA_OF_ASC_NODE": 339.9827, "ARG_OF_PERICENTER": 290.8926, "MEAN_ANOMALY": 297.0712, "EPHEMERIS_TYPE": 0, "CLASSIFICATION_TYPE": "U", "NORAD_CAT_ID": 43632, "ELEMENT_SET_NO": 999, "REV_AT_EPOCH": 2666, "BSTAR": 0, "MEAN_MOTION_DOT": 1.59e-06, "MEAN_MOTION_DDOT": 0}, "tle": {"line1": "1 43632U 18074A   25355.20222344  .00000159  00000+0  00000+0 0  9990", "line2": "2 43632   0.0180 339.9827 0001238 290.8926 297.0712  1.00272320 26665"}}, "geometry": {"type": "Point", "coordinates": [-4.2453543075029065, 0.005627876459545809]}}, {"type": "Feature", "properties": {"norad_id": 43633, "name": "HORIZONS-3E", "group": "intelsat", "lat": -0.010074941816149152, "lon": 119.59691145831843, "alt_km": 35789.13382260458, "timestamp": "2025-12-21T14:40:47.578707+00:00", "meta": {"OBJECT_NAME": "HORIZONS-3E", "OBJECT_ID": "2018-074B", "EPOCH": "2025-12-20T20:52:53.061312", "MEAN_MOTION": 1.00270825, "ECCENTRICITY": 6.664e-05, "INCLINATION": 0.0092, "RA_OF_ASC_NODE": 228.8409, "ARG_OF_PERICENTER": 76.0136, "MEAN_ANOMALY": 267.0442, "EPHEMERIS_TYPE": 0, "CLASSIFICATION_TYPE": "U", "NORAD_CAT_ID": 43633, "ELEMENT_SET_NO": 999, "REV_AT_EPOCH": 2655, "BSTAR": 0, "MEAN_MOTION_DOT": 0, "MEAN_MOTION_DDOT": 0}, "tle": {"line1": "1 43633U 18074B   25354.87005858  .00000000  00000+0  00000+0 0  9997", "line2": "2 43633   0.0092 228.8409 0000666  76.0136 267.0442  1.00270825 26554"}}, "geometry": {"type": "Point", "coordinates": [119.59691145831843, -0.010074941816149152]}}, {"type": "Feature", "properties": {"norad_id": 44333, "name": "AT&T T-16", "group": "intelsat", "lat": 0.0028247219217958186, "lon": -150.25259000912416, "alt_km": 35785.04430952956, "timestamp": "2025-12-21T14:40:47.578719+00:00", "meta": {"OBJECT_NAME": "AT&T T-16", "OBJECT_ID": "2019-034A", "EPOCH": "2025-12-20T14:27:46.526976", "MEAN_MOTION": 1.00263761, "ECCENTRICITY": 0.0001552, "INCLINATION": 0.019, "RA_OF_ASC_NODE": 58.344, "ARG_OF_PERICENTER": 92.0528, "MEAN_ANOMALY": 55.1236, "EPHEMERIS_TYPE": 0, "CLASSIFICATION_TYPE": "U", "NORAD_CAT_ID": 44333, "ELEMENT_SET_NO": 999, "REV_AT_EPOCH": 2384, "BSTAR": 0, "MEAN_MOTION_DOT": -9.1e-07, "MEAN_MOTION_DDOT": 0}, "tle": {"line1": "1 44333U 19034A   25354.60262184 -.00000091  00000+0  00000+0 0  9991", "line2": "2 44333   0.0190  58.3440 0001552  92.0528  55.1236  1.00263761 23847"}}, "geometry": {"type": "Point", "coordinates": [-150.25259000912416, 0.0028247219217958186]}}]}